NORAD_CAT_ID,OBJECT_NAME,OBJECT_TYPE,EPOCH,MEAN_MOTION,ECCENTRICITY,INCLINATION,RA_OF_ASC_NODE,ARG_OF_PERICENTER,MEAN_ANOMALY,BSTAR,MEAN_MOTION_DOT,MEAN_MOTION_DDOT,TLE_LINE0,TLE_LINE1,TLE_LINE2,SEMIMAJOR_AXIS,PERIOD,APOGEE,PERIGEE,DECAYED
51731.0,STARLINK-3514,PAYLOAD,2024-03-14 21:05:48,15.0882846,0.0001158,53.2188,332.9204,74.3234,285.7886,-4.8187e-05,-1.054e-05,0.0,0 STARLINK-3514,1 51731U 22016T   24074.87903509 -.00001054  00000-0 -48187-4 0  9990,2 51731  53.2188 332.9204 0001158  74.3234 285.7886 15.08828460115257,6917.916,95.438,540.582,538.98,0.0
51731.0,STARLINK-3514,PAYLOAD,2024-03-14 22:41:11,15.08832413,0.000145,53.2196,332.6299,96.9353,263.1804,1.2531e-05,-8.9e-07,0.0,0 STARLINK-3514,1 51731U 22016T   24074.94527190 -.00000089  00000-0  12531-4 0  9996,2 51731  53.2196 332.6299 0001450  96.9353 263.1804 15.08832413115268,6917.904,95.438,540.772,538.765,0.0
51731.0,STARLINK-3514,PAYLOAD,2024-03-15 17:45:48,15.08842954,0.0001248,53.219,329.0616,96.729,263.3844,5.4774e-07,-2.79e-06,0.0,0 STARLINK-3514,1 51731U 22016T   24075.74014897 -.00000279  00000-0  54774-6 0  9998,2 51731  53.2190 329.0616 0001248  96.7290 263.3844 15.08842954115388,6917.871,95.437,540.6,538.873,0.0
51731.0,STARLINK-3514,PAYLOAD,2024-03-15 22:31:58,15.08838378,0.000117,53.2187,328.1684,80.0831,280.0293,-2.2279e-05,-6.42e-06,0.0,0 STARLINK-3514,1 51731U 22016T   24075.93887287 -.00000642  00000-0 -22279-4 0  9998,2 51731  53.2187 328.1684 0001170  80.0831 280.0293 15.08838378114300,6917.885,95.438,540.56,538.941,0.0
51731.0,STARLINK-3514,PAYLOAD,2024-03-16 03:18:08,15.0883551,0.0001155,53.2182,327.2736,80.8823,279.23,3.5708e-06,-2.31e-06,0.0,0 STARLINK-3514,1 51731U 22016T   24076.13759404 -.00000231  00000-0  35708-5 0  9995,2 51731  53.2182 327.2736 0001155  80.8823 279.2300 15.08835510115445,6917.894,95.438,540.558,538.96,0.0
51731.0,STARLINK-3514,PAYLOAD,2024-03-16 22:22:45,15.08841691,9.86e-05,53.2172,323.7051,77.9418,282.1685,8.4008e-05,1.05e-05,0.0,0 STARLINK-3514,1 51731U 22016T   24076.93246919  .00001050  00000-0  84008-4 0  9990,2 51731  53.2172 323.7051 0000986  77.9418 282.1685 15.08841691114459,6917.875,95.437,540.422,539.058,0.0
51731.0,STARLINK-3514,PAYLOAD,2024-03-16 23:58:08,15.08844012,0.0001089,53.2179,323.4079,80.6162,279.4953,0.00010296,1.351e-05,0.0,0 STARLINK-3514,1 51731U 22016T   24076.99870736  .00001351  00000-0  10296-3 0  9997,2 51731  53.2179 323.4079 0001089  80.6162 279.4953 15.08844012115576,6917.868,95.437,540.486,538.98,0.0
51731.0,STARLINK-3514,PAYLOAD,2024-03-17 22:13:32,15.08841172,0.0001061,53.218,319.2446,85.8673,274.244,0.00012029,1.627e-05,0.0,0 STARLINK-3514,1 51731U 22016T   24077.92606682  .00001627  00000-0  12029-3 0  9990,2 51731  53.2180 319.2446 0001061  85.8673 274.2440 15.08841172114604,6917.877,95.437,540.476,539.008,0.0
51731.0,STARLINK-3514,PAYLOAD,2024-03-18 01:24:18,15.08841998,0.0001046,53.2177,318.6494,80.6247,279.4863,0.00012448,1.694e-05,0.0,0 STARLINK-3514,1 51731U 22016T   24078.05854649  .00001694  00000-0  12448-3 0  9992,2 51731  53.2177 318.6494 0001046  80.6247 279.4863 15.08841998115736,6917.874,95.437,540.463,539.016,0.0
51731.0,STARLINK-3514,PAYLOAD,2024-03-18 22:04:19,15.08843655,0.0001193,53.2183,314.78,72.8628,287.2495,1.6403e-06,-2.62e-06,0.0,0 STARLINK-3514,1 51731U 22016T   24078.91966798 -.00000262  00000-0  16403-5 0  9994,2 51731  53.2183 314.7800 0001193  72.8628 287.2495 15.08843655114751,6917.869,95.437,540.56,538.909,0.0
51731.0,STARLINK-3514,PAYLOAD,2024-03-19 21:55:05,15.08847989,0.0001202,53.2182,310.3187,71.0615,289.0507,9.758e-05,1.266e-05,0.0,0 STARLINK-3514,1 51731U 22016T   24079.91325950  .00001266  00000-0  97580-4 0  9992,2 51731  53.2182 310.3187 0001202  71.0615 289.0507 15.08847989116017,6917.856,95.437,540.552,538.889,0.0
51731.0,STARLINK-3514,PAYLOAD,2024-03-20 20:10:30,15.08838455,0.0001173,53.2181,306.1606,119.6865,240.4244,1.4785e-05,-5.3e-07,0.0,0 STARLINK-3514,1 51731U 22016T   24080.84062729 -.00000053  00000-0  14785-4 0  9998,2 51731  53.2181 306.1606 0001173 119.6865 240.4244 15.08838455116150,6917.885,95.438,540.562,538.939,0.0
51731.0,STARLINK-3514,PAYLOAD,2024-03-20 21:45:53,15.0883577,9.77e-05,53.2175,305.8659,113.2337,246.8758,-4.1597e-06,-3.54e-06,0.0,0 STARLINK-3514,1 51731U 22016T   24080.90686997 -.00000354  00000-0 -41597-5 0  9991,2 51731  53.2175 305.8659 0000977 113.2337 246.8758 15.08835770115057,6917.893,95.438,540.434,539.082,0.0
51731.0,STARLINK-3514,PAYLOAD,2024-03-21 00:56:39,15.08836209,8.92e-05,53.2173,305.2686,108.6248,251.4842,-2.2621e-05,-6.48e-06,0.0,0 STARLINK-3514,1 51731U 22016T   24081.03935004 -.00000648  00000-0 -22621-4 0  9994,2 51731  53.2173 305.2686 0000892 108.6248 251.4842 15.08836209115070,6917.892,95.438,540.374,539.14,0.0
51731.0,STARLINK-3514,PAYLOAD,2024-03-21 20:01:17,15.08841211,9.67e-05,53.217,301.7003,86.8772,273.233,-1.0666e-05,-4.57e-06,0.0,0 STARLINK-3514,1 51731U 22016T   24081.83423007 -.00000457  00000-0 -10666-4 0  9991,2 51731  53.2170 301.7003 0000967  86.8772 273.2330 15.08841211115199,6917.877,95.437,540.411,539.073,0.0
51731.0,STARLINK-3514,PAYLOAD,2024-03-22 21:27:27,15.08839442,0.0001011,53.2172,296.9412,90.6589,269.4519,0.00018846,2.713e-05,0.0,0 STARLINK-3514,1 51731U 22016T   24082.89406739  .00002713  00000-0  18846-3 0  9993,2 51731  53.2172 296.9412 0001011  90.6589 269.4519 15.08839442116460,6917.882,95.438,540.446,539.048,0.0
51731.0,STARLINK-3514,PAYLOAD,2024-03-23 21:18:14,15.08838759,0.0001174,53.2169,292.48,80.6239,279.4886,-2.0288e-05,-6.11e-06,0.0,0 STARLINK-3514,1 51731U 22016T   24083.88767099 -.00000611  00000-0 -20288-4 0  9993,2 51731  53.2169 292.4800 0001174  80.6239 279.4886 15.08838759116614,6917.884,95.438,540.561,538.937,0.0
51731.0,STARLINK-3514,PAYLOAD,2024-03-24 13:12:06,15.08843279,0.0002312,53.2169,289.5087,83.1455,276.98,7.8515e-05,9.62e-06,0.0,0 STARLINK-3514,1 51731U 22016T   24084.55007540  .00000962  00000-0  78515-4 0  9999,2 51731  53.2169 289.5087 0002312  83.1455 276.9800 15.08843279115600,6917.87,95.437,541.335,538.136,0.0
51731.0,STARLINK-3514,PAYLOAD,2024-03-24 22:44:25,15.08842151,0.0001151,53.218,287.7201,93.787,266.3254,0.0001107,1.474e-05,0.0,0 STARLINK-3514,1 51731U 22016T   24084.94751699  .00001474  00000-0  11070-3 0  9994,2 51731  53.2180 287.7201 0001151  93.7870 266.3254 15.08842151115669,6917.874,95.437,540.535,538.943,0.0
51731.0,STARLINK-3514,PAYLOAD,2024-03-25 19:24:25,15.08851244,9.57e-05,53.2167,283.8546,87.4453,272.6649,0.00032663,4.916e-05,0.0,0 STARLINK-3514,1 51731U 22016T   24085.80863316  .00004916  00000-0  32663-3 0  9995,2 51731  53.2167 283.8546 0000957  87.4453 272.6649 15.08851244115798,6917.846,95.437,540.373,539.049,0.0
51731.0,STARLINK-3514,PAYLOAD,2024-03-26 12:53:41,15.08834932,0.0002001,53.2165,280.5848,93.7504,266.3717,0.00020397,2.959e-05,0.0,0 STARLINK-3514,1 51731U 22016T   24086.53728151  .00002959  00000-0  20397-3 0  9999,2 51731  53.2165 280.5848 0002001  93.7504 266.3717 15.08834932117012,6917.896,95.438,541.145,538.377,0.0
51731.0,STARLINK-3514,PAYLOAD,2024-03-26 19:15:13,15.08828944,0.0001278,53.2161,279.3956,107.5271,252.586,-2.0397e-05,-6.12e-06,0.0,0 STARLINK-3514,1 51731U 22016T   24086.80224229 -.00000612  00000-0 -20397-4 0  9993,2 51731  53.2161 279.3956 0001278 107.5271 252.5860 15.08828944115946,6917.914,95.438,540.663,538.895,0.0
51731.0,STARLINK-3514,PAYLOAD,2024-03-27 12:44:28,15.08838105,0.0001255,53.216,276.1245,108.7795,251.3333,8.2711e-05,1.029e-05,0.0,0 STARLINK-3514,1 51731U 22016T   24087.53088064  .00001029  00000-0  82711-4 0  9998,2 51731  53.2160 276.1245 0001255 108.7795 251.3333 15.08838105116055,6917.886,95.438,540.619,538.883,0.0
51731.0,STARLINK-3514,PAYLOAD,2024-03-27 19:06:00,15.08842697,0.0001166,53.2164,274.9368,97.4503,262.6622,0.00025414,3.759e-05,0.0,0 STARLINK-3514,1 51731U 22016T   24087.79584169  .00003759  00000-0  25414-3 0  9991,2 51731  53.2164 274.9368 0001166  97.4503 262.6622 15.08842697117208,6917.872,95.437,540.544,538.931,0.0
51731.0,STARLINK-3514,PAYLOAD,2024-03-27 22:16:46,15.08848172,0.0001214,53.2163,274.3417,97.6434,262.4696,0.00041445,6.316e-05,0.0,0 STARLINK-3514,1 51731U 22016T   24087.92832059  .00006316  00000-0  41445-3 0  9994,2 51731  53.2163 274.3417 0001214  97.6434 262.4696 15.08848172116117,6917.855,95.437,540.56,538.881,0.0
51731.0,STARLINK-3514,PAYLOAD,2024-03-28 12:35:15,15.08847599,0.0001231,53.2169,271.6643,100.3063,259.8068,0.00037651,5.711e-05,0.0,0 STARLINK-3514,1 51731U 22016T   24088.52448128  .00005711  00000-0  37651-3 0  9993,2 51731  53.2169 271.6643 0001231 100.3063 259.8068 15.08847599116208,6917.857,95.437,540.574,538.871,0.0
51731.0,STARLINK-3514,PAYLOAD,2024-03-28 22:07:33,15.08848961,0.0001275,53.217,269.8806,88.9567,271.1572,0.00031989,4.808e-05,0.0,0 STARLINK-3514,1 51731U 22016T   24088.92192039  .00004808  00000-0  31989-3 0  9998,2 51731  53.2170 269.8806 0001275  88.9567 271.1572 15.08848961116265,6917.853,95.437,540.6,538.836,0.0
51731.0,STARLINK-3514,PAYLOAD,2024-03-29 12:26:02,15.08841933,0.0001559,53.2173,267.2049,89.9027,270.2144,4.6415e-05,4.51e-06,0.0,0 STARLINK-3514,1 51731U 22016T   24089.51808117  .00000451  00000-0  46415-4 0  9996,2 51731  53.2173 267.2049 0001559  89.9027 270.2144 15.08841933117466,6917.874,95.437,540.818,538.661,0.0
51731.0,STARLINK-3514,PAYLOAD,2024-03-29 18:47:34,15.08838595,0.0001417,53.2174,266.0148,90.1078,270.0077,1.848e-05,6e-08,0.0,0 STARLINK-3514,1 51731U 22016T   24089.78304362  .00000006  00000-0  18480-4 0  9995,2 51731  53.2174 266.0148 0001417  90.1078 270.0077 15.08838595116391,6917.885,95.438,540.73,538.769,0.0
51731.0,STARLINK-3514,PAYLOAD,2024-03-30 10:41:26,15.0883806,0.0001847,53.2217,263.0425,90.114,270.0064,6.3494e-06,-1.87e-06,0.0,0 STARLINK-3514,1 51731U 22016T   24090.44544592 -.00000187  00000-0  63494-5 0  9998,2 51731  53.2217 263.0425 0001847  90.1140 270.0064 15.08838060117609,6917.886,95.438,541.029,538.474,0.0
